start=new Date('2022-12-21T00:00:00.000Z').valueOf();
sats=[{"MEAN_ELEMENT_THEORY":"SGP4","OBJECT_ID":"2021-027AZ","REV_AT_EPOCH":"9517","SEMIMAJOR_AXIS":"6925.341","PERIOD":"95.592","TLE_LINE1":"1 48139U 21027AZ  22354.50356074  .00001955  00000-0  15013-3 0  9996","COUNTRY_CODE":"US","RCS_SIZE":"LARGE","SITE":"AFETR","ARG_OF_PERICENTER":"28.2106","INCLINATION":"53.0524","APOAPSIS":"548.583","PERIAPSIS":"545.829","CLASSIFICATION_TYPE":"U","OBJECT_TYPE":"PAYLOAD","ECCENTRICITY":"0.00019880","ELEMENT_SET_NO":"999","OBJECT_NAME":"STARLINK-2482","RA_OF_ASC_NODE":"27.2488","DECAY_DATE":null,"MEAN_ANOMALY":"331.8990","EPHEMERIS_TYPE":"0","EPOCH":"2022-12-20T12:05:07.647936","MEAN_MOTION_DOT":"0.00001955","BSTAR":"0.00015013000000","TLE_LINE2":"2 48139  53.0524  27.2488 0001988  28.2106 331.8990 15.06402447 95170","CENTER_NAME":"EARTH","MEAN_MOTION_DDOT":"0.0000000000000","MEAN_MOTION":"15.06402447","REF_FRAME":"TEME","FILE":"3713942","TIME_SYSTEM":"UTC","GP_ID":"221040855","LAUNCH_DATE":"2021-04-07","NORAD_CAT_ID":"48139"},{"PERIAPSIS":"545.619","APOAPSIS":"548.720","INCLINATION":"53.0549","OBJECT_NAME":"STARLINK-2483","ELEMENT_SET_NO":"999","ECCENTRICITY":"0.00022390","OBJECT_TYPE":"PAYLOAD","CLASSIFICATION_TYPE":"U","SEMIMAJOR_AXIS":"6925.305","OBJECT_ID":"2021-027BA","REV_AT_EPOCH":"9495","MEAN_ELEMENT_THEORY":"SGP4","ARG_OF_PERICENTER":"45.5621","SITE":"AFETR","RCS_SIZE":"LARGE","COUNTRY_CODE":"US","TLE_LINE1":"1 48140U 21027BA  22354.93570368  .00004093  00000-0  29342-3 0  9995","PERIOD":"95.591","REF_FRAME":"TEME","MEAN_MOTION":"15.06414314","LAUNCH_DATE":"2021-04-07","NORAD_CAT_ID":"48140","GP_ID":"221045029","TIME_SYSTEM":"UTC","FILE":"3714185","DECAY_DATE":null,"RA_OF_ASC_NODE":"45.3096","MEAN_MOTION_DDOT":"0.0000000000000","CENTER_NAME":"EARTH","TLE_LINE2":"2 48140  53.0549  45.3096 0002239  45.5621 314.5550 15.06414314 94950","BSTAR":"0.00029342000000","MEAN_MOTION_DOT":"0.00004093","EPOCH":"2022-12-20T22:27:24.797952","EPHEMERIS_TYPE":"0","MEAN_ANOMALY":"314.5550"},{"MEAN_ANOMALY":"316.1720","EPOCH":"2022-12-20T10:16:18.263424","MEAN_MOTION_DOT":"0.00002891","BSTAR":"0.00021284000000","EPHEMERIS_TYPE":"0","TLE_LINE2":"2 48141  53.0567  47.5662 0002208  43.9444 316.1720 15.06410515 95299","MEAN_MOTION_DDOT":"0.0000000000000","CENTER_NAME":"EARTH","RA_OF_ASC_NODE":"47.5662","DECAY_DATE":null,"FILE":"3713130","TIME_SYSTEM":"UTC","GP_ID":"221026027","NORAD_CAT_ID":"48141","LAUNCH_DATE":"2021-04-07","MEAN_MOTION":"15.06410515","REF_FRAME":"TEME","PERIOD":"95.591","TLE_LINE1":"1 48141U 21027BB  22354.42798916  .00002891  00000-0  21284-3 0  9992","RCS_SIZE":"LARGE","COUNTRY_CODE":"US","SITE":"AFETR","ARG_OF_PERICENTER":"43.9444","MEAN_ELEMENT_THEORY":"SGP4","REV_AT_EPOCH":"9529","OBJECT_ID":"2021-027BB","SEMIMAJOR_AXIS":"6925.316","CLASSIFICATION_TYPE":"U","OBJECT_TYPE":"PAYLOAD","OBJECT_NAME":"STARLINK-2484","ECCENTRICITY":"0.00022080","ELEMENT_SET_NO":"999","APOAPSIS":"548.710","INCLINATION":"53.0567","PERIAPSIS":"545.652"},{"CLASSIFICATION_TYPE":"U","OBJECT_TYPE":"PAYLOAD","OBJECT_NAME":"STARLINK-2485","ELEMENT_SET_NO":"999","ECCENTRICITY":"0.00020960","APOAPSIS":"548.706","INCLINATION":"53.0561","PERIAPSIS":"545.803","TLE_LINE1":"1 48142U 21027BC  22354.49988062  .00001571  00000-0  12439-3 0  9999","PERIOD":"95.593","RCS_SIZE":"LARGE","COUNTRY_CODE":"US","ARG_OF_PERICENTER":"46.3793","SITE":"AFETR","MEAN_ELEMENT_THEORY":"SGP4","OBJECT_ID":"2021-027BC","REV_AT_EPOCH":"9557","SEMIMAJOR_AXIS":"6925.389","TIME_SYSTEM":"UTC","FILE":"3713130","GP_ID":"221026779","NORAD_CAT_ID":"48142","LAUNCH_DATE":"2021-04-07","MEAN_MOTION":"15.06386733","REF_FRAME":"TEME","MEAN_ANOMALY":"313.7370","MEAN_MOTION_DOT":"0.00001571","BSTAR":"0.00012439000000","EPOCH":"2022-12-20T11:59:49.685568","EPHEMERIS_TYPE":"0","TLE_LINE2":"2 48142  53.0561  27.2585 0002096  46.3793 313.7370 15.06386733 95571","MEAN_MOTION_DDOT":"0.0000000000000","CENTER_NAME":"EARTH","RA_OF_ASC_NODE":"27.2585","DECAY_DATE":null},{"SEMIMAJOR_AXIS":"6925.325","REV_AT_EPOCH":"9618","OBJECT_ID":"2021-027BD","MEAN_ELEMENT_THEORY":"SGP4","SITE":"AFETR","ARG_OF_PERICENTER":"68.2218","COUNTRY_CODE":"US","RCS_SIZE":"LARGE","PERIOD":"95.592","TLE_LINE1":"1 48143U 21027BD  22354.41646330  .00002963  00000-0  21771-3 0  9996","PERIAPSIS":"545.954","INCLINATION":"53.0532","APOAPSIS":"548.425","ELEMENT_SET_NO":"999","ECCENTRICITY":"0.00017840","OBJECT_NAME":"STARLINK-2486","OBJECT_TYPE":"PAYLOAD","CLASSIFICATION_TYPE":"U","DECAY_DATE":null,"RA_OF_ASC_NODE":"342.6288","CENTER_NAME":"EARTH","MEAN_MOTION_DDOT":"0.0000000000000","TLE_LINE2":"2 48143  53.0532 342.6288 0001784  68.2218 291.8961 15.06407754 96189","EPHEMERIS_TYPE":"0","MEAN_MOTION_DOT":"0.00002963","BSTAR":"0.00021771000000","EPOCH":"2022-12-20T09:59:42.429120","MEAN_ANOMALY":"291.8961","REF_FRAME":"TEME","MEAN_MOTION":"15.06407754","LAUNCH_DATE":"2021-04-07","NORAD_CAT_ID":"48143","GP_ID":"221026529","TIME_SYSTEM":"UTC","FILE":"3713130"},{"TLE_LINE2":"2 48144  53.0552  27.2278 0002333  33.6014 326.5122 15.06409379 95569","MEAN_MOTION_DDOT":"0.0000000000000","CENTER_NAME":"EARTH","MEAN_ANOMALY":"326.5122","MEAN_MOTION_DOT":"0.00001313","BSTAR":"0.00010701000000","EPOCH":"2022-12-20T12:10:25.266432","EPHEMERIS_TYPE":"0","RA_OF_ASC_NODE":"27.2278","DECAY_DATE":null,"GP_ID":"221025277","NORAD_CAT_ID":"48144","LAUNCH_DATE":"2021-04-07","FILE":"3713130","TIME_SYSTEM":"UTC","REF_FRAME":"TEME","MEAN_MOTION":"15.06409379","ARG_OF_PERICENTER":"33.6014","SITE":"AFETR","PERIOD":"95.592","TLE_LINE1":"1 48144U 21027BE  22354.50723688  .00001313  00000-0  10701-3 0  9998","RCS_SIZE":"LARGE","COUNTRY_CODE":"US","OBJECT_ID":"2021-027BE","REV_AT_EPOCH":"9556","SEMIMAJOR_AXIS":"6925.320","MEAN_ELEMENT_THEORY":"SGP4","OBJECT_TYPE":"PAYLOAD","OBJECT_NAME":"STARLINK-2487","ELEMENT_SET_NO":"999","ECCENTRICITY":"0.00023330","CLASSIFICATION_TYPE":"U","APOAPSIS":"548.800","INCLINATION":"53.0552","PERIAPSIS":"545.569"},{"RA_OF_ASC_NODE":"27.2162","DECAY_DATE":null,"TLE_LINE2":"2 48145  53.0561  27.2162 0001967  42.5603 317.5539 15.06408699 95574","MEAN_MOTION_DDOT":"0.0000000000000","CENTER_NAME":"EARTH","MEAN_ANOMALY":"317.5539","MEAN_MOTION_DOT":"0.00002970","EPOCH":"2022-12-20T12:15:44.075520","BSTAR":"0.00021818000000","EPHEMERIS_TYPE":"0","REF_FRAME":"TEME","MEAN_MOTION":"15.06408699","GP_ID":"221025527","LAUNCH_DATE":"2021-04-07","NORAD_CAT_ID":"48145","TIME_SYSTEM":"UTC","FILE":"3713130","REV_AT_EPOCH":"9557","OBJECT_ID":"2021-027BF","SEMIMAJOR_AXIS":"6925.322","MEAN_ELEMENT_THEORY":"SGP4","SITE":"AFETR","ARG_OF_PERICENTER":"42.5603","PERIOD":"95.592","TLE_LINE1":"1 48145U 21027BF  22354.51092680  .00002970  00000-0  21818-3 0  9992","RCS_SIZE":"MEDIUM","COUNTRY_CODE":"US","APOAPSIS":"548.549","INCLINATION":"53.0561","PERIAPSIS":"545.825","OBJECT_TYPE":"PAYLOAD","OBJECT_NAME":"STARLINK-2488","ELEMENT_SET_NO":"999","ECCENTRICITY":"0.00019670","CLASSIFICATION_TYPE":"U"},{"PERIOD":"95.592","TLE_LINE1":"1 48146U 21027BG  22354.77446901  .00000297  00000-0  38851-4 0  9996","RCS_SIZE":"LARGE","COUNTRY_CODE":"US","ARG_OF_PERICENTER":"36.4595","SITE":"AFETR","MEAN_ELEMENT_THEORY":"SGP4","OBJECT_ID":"2021-027BG","REV_AT_EPOCH":"9493","SEMIMAJOR_AXIS":"6925.353","CLASSIFICATION_TYPE":"U","OBJECT_TYPE":"PAYLOAD","OBJECT_NAME":"STARLINK-2489","ECCENTRICITY":"0.00024320","ELEMENT_SET_NO":"999","APOAPSIS":"548.902","INCLINATION":"53.0538","PERIAPSIS":"545.534","MEAN_ANOMALY":"323.6559","MEAN_MOTION_DOT":"0.00000297","BSTAR":"0.00003885100000","EPOCH":"2022-12-20T18:35:14.122464","EPHEMERIS_TYPE":"0","TLE_LINE2":"2 48146  53.0538  46.0264 0002432  36.4595 323.6559 15.06398569 94934","MEAN_MOTION_DDOT":"0.0000000000000","CENTER_NAME":"EARTH","RA_OF_ASC_NODE":"46.0264","DECAY_DATE":null,"FILE":"3713943","TIME_SYSTEM":"UTC","GP_ID":"221040455","LAUNCH_DATE":"2021-04-07","NORAD_CAT_ID":"48146","MEAN_MOTION":"15.06398569","REF_FRAME":"TEME"},{"TIME_SYSTEM":"UTC","FILE":"3713943","GP_ID":"221040907","NORAD_CAT_ID":"48147","LAUNCH_DATE":"2021-04-07","MEAN_MOTION":"15.06407678","REF_FRAME":"TEME","MEAN_ANOMALY":"323.7113","MEAN_MOTION_DOT":"-0.00000391","EPOCH":"2022-12-20T13:45:17.428032","BSTAR":"-0.00000734080000","EPHEMERIS_TYPE":"0","TLE_LINE2":"2 48147  53.0549  51.9281 0002316  36.4033 323.7113 15.06407678 94837","MEAN_MOTION_DDOT":"0.0000000000000","CENTER_NAME":"EARTH","RA_OF_ASC_NODE":"51.9281","DECAY_DATE":null,"CLASSIFICATION_TYPE":"U","OBJECT_TYPE":"PAYLOAD","OBJECT_NAME":"STARLINK-2490","ELEMENT_SET_NO":"999","ECCENTRICITY":"0.00023160","APOAPSIS":"548.794","INCLINATION":"53.0549","PERIAPSIS":"545.586","TLE_LINE1":"1 48147U 21027BH  22354.57311838 -.00000391  00000-0 -73408-5 0  9990","PERIOD":"95.592","RCS_SIZE":"LARGE","COUNTRY_CODE":"US","SITE":"AFETR","ARG_OF_PERICENTER":"36.4033","MEAN_ELEMENT_THEORY":"SGP4","REV_AT_EPOCH":"9483","OBJECT_ID":"2021-027BH","SEMIMAJOR_AXIS":"6925.325"},{"MEAN_ELEMENT_THEORY":"SGP4","OBJECT_ID":"2021-027BJ","REV_AT_EPOCH":"9491","SEMIMAJOR_AXIS":"6925.339","TLE_LINE1":"1 48148U 21027BJ  22354.67495086  .00000674  00000-0  64137-4 0  9990","PERIOD":"95.592","COUNTRY_CODE":"US","RCS_SIZE":"LARGE","ARG_OF_PERICENTER":"38.7840","SITE":"AFETR","INCLINATION":"53.0550","APOAPSIS":"548.870","PERIAPSIS":"545.537","CLASSIFICATION_TYPE":"U","OBJECT_TYPE":"PAYLOAD","ECCENTRICITY":"0.00024060","ELEMENT_SET_NO":"999","OBJECT_NAME":"STARLINK-2491","RA_OF_ASC_NODE":"46.4583","DECAY_DATE":null,"MEAN_ANOMALY":"321.3321","EPHEMERIS_TYPE":"0","MEAN_MOTION_DOT":"0.00000674","BSTAR":"0.00006413700000","EPOCH":"2022-12-20T16:11:55.754304","TLE_LINE2":"2 48148  53.0550  46.4583 0002406  38.7840 321.3321 15.06403250 94911","CENTER_NAME":"EARTH","MEAN_MOTION_DDOT":"0.0000000000000","MEAN_MOTION":"15.06403250","REF_FRAME":"TEME","TIME_SYSTEM":"UTC","FILE":"3713999","GP_ID":"221041772","NORAD_CAT_ID":"48148","LAUNCH_DATE":"2021-04-07"}];
